{"type": "FeatureCollection", "features": [ {"type": "Feature", "properties": {"norad_id": 61186, "name": "BEIDOU-3 M25 (C47)", "group": "beidou", "lat": -50.41444414756944, "lon": -172.6513403365953, "alt_km": 21523.920242724143, "timestamp": "2025-12-26T09:30:53.903538+00:00", "meta": {"OBJECT_NAME": "BEIDOU-3 M25 (C47)", "OBJECT_ID": "2024-168B", "EPOCH": "2025-12-26T03:07:34.767264", "MEAN_MOTION": 1.86229952, "ECCENTRICITY": 0.0005401, "INCLINATION": 54.6301, "RA_OF_ASC_NODE": 308.2571, "ARG_OF_PERICENTER": 300.3684, "MEAN_ANOMALY": 132.0929, "EPHEMERIS_TYPE": 0, "CLASSIFICATION_TYPE": "U", "NORAD_CAT_ID": 61186, "ELEMENT_SET_NO": 999, "REV_AT_EPOCH": 856, "BSTAR": 0, "MEAN_MOTION_DOT": -5.6e-07, "MEAN_MOTION_DDOT": 0}, "tle": {"line1": "1 61186U 24168B   25360.13026351 -.00000056  00000+0  00000+0 0  9990", "line2": "2 61186  54.6301 308.2571 0005401 300.3684 132.0929  1.86229952  8562"}}, "geometry": {"type": "Point", "coordinates": [-172.6513403365953, -50.41444414756944]}}, {"type": "Feature", "properties": {"norad_id": 61187, "name": "BEIDOU-3 M27 (C49)", "group": "beidou", "lat": 20.863674363863502, "lon": -36.090493202612905, "alt_km": 21520.568135144076, "timestamp": "2025-12-26T09:30:53.903549+00:00", "meta": {"OBJECT_NAME": "BEIDOU-3 M27 (C49)", "OBJECT_ID": "2024-168C", "EPOCH": "2025-12-26T02:09:38.712096", "MEAN_MOTION": 1.86230112, "ECCENTRICITY": 0.0002535, "INCLINATION": 54.6256, "RA_OF_ASC_NODE": 308.2421, "ARG_OF_PERICENTER": 341.7609, "MEAN_ANOMALY": 198.677, "EPHEMERIS_TYPE": 0, "CLASSIFICATION_TYPE": "U", "NORAD_CAT_ID": 61187, "ELEMENT_SET_NO": 999, "REV_AT_EPOCH": 603, "BSTAR": 0, "MEAN_MOTION_DOT": -5.6e-07, "MEAN_MOTION_DDOT": 0}, "tle": {"line1": "1 61187U 24168C   25360.09003139 -.00000056  00000+0  00000+0 0  9995", "line2": "2 61187  54.6256 308.2421 0002535 341.7609 198.6770  1.86230112  6039"}}, "geometry": {"type": "Point", "coordinates": [-36.090493202612905, 20.863674363863502]}}]}